{
  "type": "FeatureCollection",
  "features": [
    {
      "type": "Feature",
      "properties": {
        "norad_id": 64751,
        "name": "PROGRESS-MS 31",
        "group": "stations",
        "lat": -49.985718799508554,
        "lon": 46.65601469115161,
        "alt_km": 420.3075562091999,
        "timestamp": "2025-12-17T19:34:06.822653+00:00",
        "meta_object_name": "PROGRESS-MS 31",
        "meta_object_id": "2025-146A",
        "meta_epoch": "2025-12-17T01:19:48.717408",
        "meta_mean_motion": 15.49629327,
        "meta_eccentricity": 0.00031735,
        "meta_inclination": 51.6309,
        "meta_ra_of_asc_node": 121.1077,
        "meta_arg_of_pericenter": 260.4156,
        "meta_mean_anomaly": 99.6474,
        "meta_ephemeris_type": 0,
        "meta_classification_type": "U",
        "meta_norad_cat_id": 64751,
        "meta_element_set_no": 999,
        "meta_rev_at_epoch": 675,
        "meta_bstar": 0.00014583435,
        "meta_mean_motion_dot": 7.77e-05,
        "meta_mean_motion_ddot": 0,
        "tle_line1": "1 64751U 25146A   25351.05542497  .00007770  00000+0  14583-3 0  9997",
        "tle_line2": "2 64751  51.6309 121.1077 0003173 260.4156  99.6474 15.49629327  6751"
      },
      "geometry": {
        "type": "Point",
        "coordinates": [
          46.65601469115161,
          -49.985718799508554
        ]
      }
    },
    {
      "type": "Feature",
      "properties": {
        "norad_id": 64786,
        "name": "TIANZHOU-9",
        "group": "stations",
        "lat": -30.435133043504564,
        "lon": -152.4065418392408,
        "alt_km": 396.7501208994536,
        "timestamp": "2025-12-17T19:34:06.822663+00:00",
        "meta_object_name": "TIANZHOU-9",
        "meta_object_id": "2025-149A",
        "meta_epoch": "2025-12-17T07:49:42.593088",
        "meta_mean_motion": 15.59373916,
        "meta_eccentricity": 0.0007759,
        "meta_inclination": 41.4681,
        "meta_ra_of_asc_node": 348.8601,
        "meta_arg_of_pericenter": 70.4303,
        "meta_mean_anomaly": 289.7373,
        "meta_ephemeris_type": 0,
        "meta_classification_type": "U",
        "meta_norad_cat_id": 64786,
        "meta_element_set_no": 999,
        "meta_rev_at_epoch": 25530,
        "meta_bstar": 0.00025118398,
        "meta_mean_motion_dot": 0.00020139,
        "meta_mean_motion_ddot": 0,
        "tle_line1": "1 64786U 25149A   25351.32618742  .00020139  00000+0  25118-3 0  9995",
        "tle_line2": "2 64786  41.4681 348.8601 0007759  70.4303 289.7373 15.59373916255305"
      },
      "geometry": {
        "type": "Point",
        "coordinates": [
          -152.4065418392408,
          -30.435133043504564
        ]
      }
    },
    {
      "type": "Feature",
      "properties": {
        "norad_id": 65077,
        "name": "CREW DRAGON 11",
        "group": "stations",
        "lat": -49.98571843146968,
        "lon": 46.656016822430644,
        "alt_km": 420.3075562162185,
        "timestamp": "2025-12-17T19:34:06.822675+00:00",
        "meta_object_name": "CREW DRAGON 11",
        "meta_object_id": "2025-166A",
        "meta_epoch": "2025-12-17T01:19:48.717408",
        "meta_mean_motion": 15.49629327,
        "meta_eccentricity": 0.00031735,
        "meta_inclination": 51.6309,
        "meta_ra_of_asc_node": 121.1077,
        "meta_arg_of_pericenter": 260.4156,
        "meta_mean_anomaly": 99.6474,
        "meta_ephemeris_type": 0,
        "meta_classification_type": "U",
        "meta_norad_cat_id": 65077,
        "meta_element_set_no": 999,
        "meta_rev_at_epoch": 214,
        "meta_bstar": 0.00014583435,
        "meta_mean_motion_dot": 7.77e-05,
        "meta_mean_motion_ddot": 0,
        "tle_line1": "1 65077U 25166A   25351.05542497  .00007770  00000+0  14583-3 0  9991",
        "tle_line2": "2 65077  51.6309 121.1077 0003173 260.4156  99.6474 15.49629327  2142"
      },
      "geometry": {
        "type": "Point",
        "coordinates": [
          46.656016822430644,
          -49.98571843146968
        ]
      }
    },
    {
      "type": "Feature",
      "properties": {
        "norad_id": 65304,
        "name": "DRAGON CRS-33",
        "group": "stations",
        "lat": -49.98571826417941,
        "lon": 46.65601779119297,
        "alt_km": 420.307556219409,
        "timestamp": "2025-12-17T19:34:06.822685+00:00",
        "meta_object_name": "DRAGON CRS-33",
        "meta_object_id": "2025-186A",
        "meta_epoch": "2025-12-17T01:19:48.717408",
        "meta_mean_motion": 15.49629327,
        "meta_eccentricity": 0.00031735,
        "meta_inclination": 51.6309,
        "meta_ra_of_asc_node": 121.1077,
        "meta_arg_of_pericenter": 260.4156,
        "meta_mean_anomaly": 99.6474,
        "meta_ephemeris_type": 0,
        "meta_classification_type": "U",
        "meta_norad_cat_id": 65304,
        "meta_element_set_no": 999,
        "meta_rev_at_epoch": 11,
        "meta_bstar": 0.00014583435,
        "meta_mean_motion_dot": 7.77e-05,
        "meta_mean_motion_ddot": 0,
        "tle_line1": "1 65304U 25186A   25351.05542497  .00007770  00000+0  14583-3 0  9996",
        "tle_line2": "2 65304  51.6309 121.1077 0003173 260.4156  99.6474 15.49629327   110"
      },
      "geometry": {
        "type": "Point",
        "coordinates": [
          46.65601779119297,
          -49.98571826417941
        ]
      }
    },
    {
      "type": "Feature",
      "properties": {
        "norad_id": 65586,
        "name": "PROGRESS-MS 32",
        "group": "stations",
        "lat": -49.985718096888725,
        "lon": 46.65601875995773,
        "alt_km": 420.3075562225986,
        "timestamp": "2025-12-17T19:34:06.822695+00:00",
        "meta_object_name": "PROGRESS-MS 32",
        "meta_object_id": "2025-204A",
        "meta_epoch": "2025-12-17T01:19:48.717408",
        "meta_mean_motion": 15.49629327,
        "meta_eccentricity": 0.00031735,
        "meta_inclination": 51.6309,
        "meta_ra_of_asc_node": 121.1077,
        "meta_arg_of_pericenter": 260.4156,
        "meta_mean_anomaly": 99.6474,
        "meta_ephemeris_type": 0,
        "meta_classification_type": "U",
        "meta_norad_cat_id": 65586,
        "meta_element_set_no": 999,
        "meta_rev_at_epoch": 27,
        "meta_bstar": 0.00014583435,
        "meta_mean_motion_dot": 7.77e-05,
        "meta_mean_motion_ddot": 0,
        "tle_line1": "1 65586U 25204A   25351.05542497  .00007770  00000+0  14583-3 0  9999",
        "tle_line2": "2 65586  51.6309 121.1077 0003173 260.4156  99.6474 15.49629327   279"
      },
      "geometry": {
        "type": "Point",
        "coordinates": [
          46.65601875995773,
          -49.985718096888725
        ]
      }
    },
    {
      "type": "Feature",
      "properties": {
        "norad_id": 65616,
        "name": "CYGNUS NG-23",
        "group": "stations",
        "lat": -49.985717929598664,
        "lon": 46.6560197287188,
        "alt_km": 420.30755622578727,
        "timestamp": "2025-12-17T19:34:06.822705+00:00",
        "meta_object_name": "CYGNUS NG-23",
        "meta_object_id": "2025-208A",
        "meta_epoch": "2025-12-17T01:19:48.717408",
        "meta_mean_motion": 15.49629327,
        "meta_eccentricity": 0.00031735,
        "meta_inclination": 51.6309,
        "meta_ra_of_asc_node": 121.1077,
        "meta_arg_of_pericenter": 260.4156,
        "meta_mean_anomaly": 99.6474,
        "meta_ephemeris_type": 0,
        "meta_classification_type": "U",
        "meta_norad_cat_id": 65616,
        "meta_element_set_no": 999,
        "meta_rev_at_epoch": 22,
        "meta_bstar": 0.00014583435,
        "meta_mean_motion_dot": 7.77e-05,
        "meta_mean_motion_ddot": 0,
        "tle_line1": "1 65616U 25208A   25351.05542497  .00007770  00000+0  14583-3 0  9997",
        "tle_line2": "2 65616  51.6309 121.1077 0003173 260.4156  99.6474 15.49629327   228"
      },
      "geometry": {
        "type": "Point",
        "coordinates": [
          46.6560197287188,
          -49.985717929598664
        ]
      }
    },
    {
      "type": "Feature",
      "properties": {
        "norad_id": 65729,
        "name": "DRAGONFLY",
        "group": "stations",
        "lat": -26.769566888119044,
        "lon": 86.17149066568724,
        "alt_km": 347.57539869475386,
        "timestamp": "2025-12-17T19:34:06.822715+00:00",
        "meta_object_name": "DRAGONFLY",
        "meta_object_id": "1998-067XH",
        "meta_epoch": "2025-12-16T13:13:48.986688",
        "meta_mean_motion": 15.7319978,
        "meta_eccentricity": 0.00071179,
        "meta_inclination": 51.6242,
        "meta_ra_of_asc_node": 116.2265,
        "meta_arg_of_pericenter": 302.756,
        "meta_mean_anomaly": 57.2752,
        "meta_ephemeris_type": 0,
        "meta_classification_type": "U",
        "meta_norad_cat_id": 65729,
        "meta_element_set_no": 999,
        "meta_rev_at_epoch": 1376,
        "meta_bstar": 0.0010910742,
        "meta_mean_motion_dot": 0.00155828,
        "meta_mean_motion_ddot": 0,
        "tle_line1": "1 65729U 98067XH  25350.55126142  .00155828  00000+0  10911-2 0  9992",
        "tle_line2": "2 65729  51.6242 116.2265 0007117 302.7560  57.2752 15.73199780 13768"
      },
      "geometry": {
        "type": "Point",
        "coordinates": [
          86.17149066568724,
          -26.769566888119044
        ]
      }
    }
  ]
}